API VERSION: 1.2
API SOURCE: NASA/JPL Horizons API



*******************************************************************************
Ephemeris / API_USER Wed Apr 15 10:19:36 2026 Pasadena, USA      / Horizons
*******************************************************************************
Target body name: Uranus (799)                    {source: ura184_merged}
Center body name: Earth (399)                     {source: DE441}
Center-site name: BODY CENTER
*******************************************************************************
Start time      : A.D. 2068-Dec-11 21:43:00.0000 TDB
Stop  time      : A.D. 2068-Dec-13 21:43:00.0000 TDB
Step-size       : 60 minutes
*******************************************************************************
Center geodetic : 0.0, 0.0, 0.0                   {E-lon(deg),Lat(deg),Alt(km)}
Center cylindric: 0.0, 0.0, 0.0                   {E-lon(deg),Dxy(km),Dz(km)}
Center radii    : 6378.137, 6378.137, 6356.752 km {Equator_a, b, pole_c}
Output units    : AU-D
Calendar mode   : Mixed Julian/Gregorian
Output type     : GEOMETRIC cartesian states
Output format   : 3 (position, velocity, LT, range, range-rate)
EOP file        : eop.260414.p260711
EOP coverage    : DATA-BASED 1962-JAN-20 TO 2026-APR-14. PREDICTS-> 2026-JUL-10
Reference frame : Ecliptic of J2000.0
*******************************************************************************
            JDTDB,            Calendar Date (TDB),                      X,                      Y,                      Z,                     VX,                     VY,                     VZ,                     LT,                     RG,                     RR,
**************************************************************************************************************************************************************************************************************************************************************************
$$SOE
2476727.404861111, A.D. 2068-Dec-11 21:43:00.0000, -5.405927455363331E+00, -1.927488166100602E+01,  5.106490264306720E-05,  2.095864673506798E-02, -4.268334766956268E-03, -5.338173739844836E-05,  1.156179021634701E-01,  2.001861920066030E+01, -1.550020943234435E-03,
2476727.446527778, A.D. 2068-Dec-11 22:43:00.0000, -5.405054130396595E+00, -1.927505924813416E+01,  4.884087701138224E-05,  2.096095027875783E-02, -4.255847028951086E-03, -5.337142198873596E-05,  1.156175277485758E-01,  2.001855437273094E+01, -1.561719656265660E-03,
2476727.488194444, A.D. 2068-Dec-11 23:43:00.0000, -5.404180709622230E+00, -1.927523631489567E+01,  4.661728992791004E-05,  2.096324550918578E-02, -4.243357171866363E-03, -5.336069044582809E-05,  1.156171505184330E-01,  2.001848905735643E+01, -1.573418310086751E-03,
2476727.529861111, A.D. 2068-Dec-12 00:43:00.0000, -5.403307193385636E+00, -1.927541286120263E+01,  4.439415826945195E-05,  2.096553247351829E-02, -4.230865213737178E-03, -5.334956596175913E-05,  1.156167704730563E-01,  2.001842325453930E+01, -1.585116901434825E-03,
2476727.571527778, A.D. 2068-Dec-12 01:43:00.0000, -5.402433582030269E+00, -1.927558888696790E+01,  4.217149780277651E-05,  2.096781121781944E-02, -4.218371173192128E-03, -5.333807895517692E-05,  1.156163876124615E-01,  2.001835696428224E+01, -1.596815426166701E-03,
2476727.613194444, A.D. 2068-Dec-12 02:43:00.0000, -5.401559875897712E+00, -1.927576439210507E+01,  3.994932287145159E-05,  2.097008178558134E-02, -4.205875069123066E-03, -5.332626704677904E-05,  1.156160019366649E-01,  2.001829018658811E+01, -1.608513879180662E-03,
2476727.654861111, A.D. 2068-Dec-12 03:43:00.0000, -5.400686075327815E+00, -1.927593937652859E+01,  3.772764611216050E-05,  2.097234421637733E-02, -4.193376920362471E-03, -5.331417483745021E-05,  1.156156134456848E-01,  2.001822292146005E+01, -1.620212254364408E-03,
2476727.696527778, A.D. 2068-Dec-12 04:43:00.0000, -5.399812180658880E+00, -1.927611384015363E+01,  3.550647815428389E-05,  2.097459854467913E-02, -4.180876745379273E-03, -5.330185350289711E-05,  1.156152221395404E-01,  2.001815516890143E+01, -1.631910544569945E-03,
2476727.738194444, A.D. 2068-Dec-12 05:43:00.0000, -5.398938192227895E+00, -1.927628778289614E+01,  3.328582737685599E-05,  2.097684479886119E-02, -4.168374562000426E-03, -5.328936022295832E-05,  1.156148280182534E-01,  2.001808692891596E+01, -1.643608741614506E-03,
2476727.779861111, A.D. 2068-Dec-12 06:43:00.0000, -5.398064110370813E+00, -1.927646120467280E+01,  3.106569965675530E-05,  2.097908300040126E-02, -4.155870387162474E-03, -5.327675746681498E-05,  1.156144310818472E-01,  2.001801820150772E+01, -1.655306836305830E-03,
2476727.821527778, A.D. 2068-Dec-12 07:43:00.0000, -5.397189935422841E+00, -1.927663410540097E+01,  2.884609817905077E-05,  2.098131316327437E-02, -4.143364236694923E-03, -5.326411215718591E-05,  1.156140313303477E-01,  2.001794898668117E+01, -1.667004818489225E-03,
2476727.863194444, A.D. 2068-Dec-12 08:43:00.0000, -5.396315667718767E+00, -1.927680648499863E+01,  2.662702325770714E-05,  2.098353529352959E-02, -4.130856125135291E-03, -5.325149473750509E-05,  1.156136287637831E-01,  2.001787928444122E+01, -1.678702677113581E-03,
2476727.904861111, A.D. 2068-Dec-12 09:43:00.0000, -5.395441307593303E+00, -1.927697834338434E+01,  2.440847221924275E-05,  2.098574938903355E-02, -4.118346065574420E-03, -5.323897816609318E-05,  1.156132233821848E-01,  2.001780909479329E+01, -1.690400400313332E-03,
2476727.946527778, A.D. 2068-Dec-12 10:43:00.0000, -5.394566855381416E+00, -1.927714968047719E+01,  2.219043931188687E-05,  2.098795543936211E-02, -4.105834069529911E-03, -5.322663686076495E-05,  1.156128151855867E-01,  2.001773841774325E+01, -1.702097975503354E-03,
2476727.988194444, A.D. 2068-Dec-12 11:43:00.0000, -5.393692311418683E+00, -1.927732049619671E+01,  1.997291567211143E-05,  2.099015342582171E-02, -4.093320146845142E-03, -5.321454561622686E-05,  1.156124041740261E-01,  2.001766725329756E+01, -1.713795389484186E-03,
2476728.029861111, A.D. 2068-Dec-12 12:43:00.0000, -5.392817676041632E+00, -1.927749079046279E+01,  1.775588934056828E-05,  2.099234332158268E-02, -4.080804305611508E-03, -5.320277851523278E-05,  1.156119903475434E-01,  2.001759560146323E+01, -1.725492628555085E-03,
2476728.071527778, A.D. 2068-Dec-12 13:43:00.0000, -5.391942949588067E+00, -1.927766056319562E+01,  1.553934528918261E-05,  2.099452509190999E-02, -4.068286552111770E-03, -5.319140785284401E-05,  1.156115737061824E-01,  2.001752346224781E+01, -1.737189678632925E-03,
2476728.113194444, A.D. 2068-Dec-12 14:43:00.0000, -5.391068132397410E+00, -1.927782981431563E+01,  1.332326554705761E-05,  2.099669869447978E-02, -4.055766890783043E-03, -5.318050309148767E-05,  1.156111542499902E-01,  2.001745083565950E+01, -1.748886525375262E-03,
2476728.154861111, A.D. 2068-Dec-12 15:43:00.0000, -5.390193224810987E+00, -1.927799854374339E+01,  1.110762931362927E-05,  2.099886407977388E-02, -4.043245324198515E-03, -5.317012986280343E-05,  1.156107319790176E-01,  2.001737772170706E+01, -1.760583154306206E-03,
2476728.196527778, A.D. 2068-Dec-12 16:43:00.0000, -5.389318227172336E+00, -1.927816675139954E+01,  8.892413162663803E-06,  2.100102119154731E-02, -4.030721853067677E-03, -5.316034903068674E-05,  1.156103068933187E-01,  2.001730412039987E+01, -1.772279550944081E-03,
2476728.238194444, A.D. 2068-Dec-12 17:43:00.0000, -5.388443139827466E+00, -1.927833443720468E+01,  6.677591231114595E-06,  2.100316996736718E-02, -4.018196476255429E-03, -5.315121582841836E-05,  1.156098789929512E-01,  2.001723003174790E+01, -1.783975700929899E-03,
2476728.279861111, A.D. 2068-Dec-12 18:43:00.0000, -5.387567963125108E+00, -1.927850160107937E+01,  4.463135498821811E-06,  2.100531033922264E-02, -4.005669190820884E-03, -5.314277908139673E-05,  1.156094482779760E-01,  2.001715545576174E+01, -1.795671590155883E-03,
2476728.321527778, A.D. 2068-Dec-12 19:43:00.0000, -5.386692697416930E+00, -1.927866824294401E+01,  2.249016052274656E-06,  2.100744223420717E-02, -3.993139992076989E-03, -5.313508052573792E-05,  1.156090147484576E-01,  2.001708039245253E+01, -1.807367204893181E-03,
2476728.363194444, A.D. 2068-Dec-12 20:43:00.0000, -5.385817343057727E+00, -1.927883436271872E+01,  3.520139299807993E-08,  2.100956557527385E-02, -3.980608873672163E-03, -5.312815423184437E-05,  1.156085784044638E-01,  2.001700484183200E+01, -1.819062531917846E-03,
2476728.404861111, A.D. 2068-Dec-12 21:43:00.0000, -5.384941900405575E+00, -1.927899996032338E+01, -2.178341224576503E-06,  2.101168028206354E-02, -3.968075827695067E-03, -5.312202614094795E-05,  1.156081392460652E-01,  2.001692880391238E+01, -1.830757558633855E-03,
2476728.446527778, A.D. 2068-Dec-12 22:43:00.0000, -5.384066369821957E+00, -1.927916503567747E+01, -4.391645451256185E-06,  2.101378627180327E-02, -3.955540844803208E-03, -5.311671372154969E-05,  1.156076972733355E-01,  2.001685227870645E+01, -1.842452273191863E-03,
2476728.488194444, A.D. 2068-Dec-12 23:43:00.0000, -5.383190751671832E+00, -1.927932958870006E+01, -6.604745490872290E-06,  2.101588346026954E-02, -3.943003914375628E-03, -5.311222575154311E-05,  1.156072524863512E-01,  2.001677526622744E+01, -1.854146664601882E-03,
2476728.529861111, A.D. 2068-Dec-13 00:43:00.0000, -5.382315046323685E+00, -1.927949361930979E+01, -8.817675719378950E-06,  2.101797176280715E-02, -3.930465024689103E-03, -5.310856223059863E-05,  1.156068048851913E-01,  2.001669776648902E+01, -1.865840722837985E-03,
2476728.571527778, A.D. 2068-Dec-13 01:43:00.0000, -5.381439254149516E+00, -1.927965712742473E+01, -1.103047034140435E-05,  2.102005109539031E-02, -3.917924163116563E-03, -5.310571442598373E-05,  1.156063544699371E-01,  2.001661977950529E+01, -1.877534438932625E-03,
2476728.613194444, A.D. 2068-Dec-13 02:43:00.0000, -5.380563375524796E+00, -1.927982011296247E+01, -1.324316301492737E-05,  2.102212137570829E-02, -3.905381316345346E-03, -5.310366505341398E-05,  1.156059012406719E-01,  2.001654130529064E+01, -1.889227805058127E-03,
